GLOBALSTAR M084 [+]     
1 38040U 11080A   24041.47736069 -.00000076  00000+0  15325-3 0  9990
2 38040  52.0005 108.4627 0000741  97.5439   7.5422 12.62270741560447
GLOBALSTAR M080 [+]     
1 38041U 11080B   24042.14442204 -.00000066  00000+0  20833-3 0  9990
2 38041  52.0056 107.8666 0000674  83.2285 293.9899 12.62268907560794
GLOBALSTAR M082 [+]     
1 38042U 11080C   24041.93166841 -.00000086  00000+0  97273-4 0  9992
2 38042  52.0081  63.9074 0000792 164.3965 266.1293 12.62265871561333
GLOBALSTAR M092 [+]     
1 38043U 11080D   24041.51191515 -.00000097  00000+0  35162-4 0  9994
2 38043  52.0076 155.5375 0001050 103.0333 337.5167 12.62276401559732
GLOBALSTAR M090 [+]     
1 38044U 11080E   24041.50346047 -.00000083  00000+0  11739-3 0  9994
2 38044  51.9892  59.6528 0000454 151.6909  12.9478 12.62266083561395
GLOBALSTAR M086 [+]     
1 38045U 11080F   24042.05209642 -.00000085  00000+0  10670-3 0  9990
2 38045  51.9904  58.4958 0000612 314.1280  64.0836 12.62267112561512
GLOBALSTAR M097 [+]     
1 39072U 13005A   24042.15353071 -.00000085  00000+0  10736-3 0  9990
2 39072  52.0072 332.2346 0000241  51.3988 308.6901 12.62260449508751
GLOBALSTAR M093 [+]     
1 39073U 13005B   24041.17680210 -.00000077  00000+0  14680-3 0  9993
2 39073  51.9835 329.2998 0000189  34.9764 325.1115 12.62260690508508
